ONEWEB-0113             
1 48050U 21025J   21237.58335648  .00045211  00000-0  12322+0 0  9996
2 48050  87.8904 309.3190 0001874  90.4766 110.3859 13.13437690  3302
ONEWEB-0112             
1 48051U 21025K   21237.58335648  .00042818  00000-0  11671+0 0  9993
2 48051  87.8880 309.3911 0002118  97.3767 163.4185 13.13448166  3329
ONEWEB-0156             
1 48052U 21025L   21237.58335648  .00044804  00000-0  12211+0 0  9992
2 48052  87.8866 309.3142 0002185  97.4229 113.4120 13.13441149  3281
ONEWEB-0161             
1 48053U 21025M   21237.58335648  .00042239  00000-0  11512+0 0  9996
2 48053  87.8858 309.3992 0001986  97.2041 243.4647 13.13458770  3280
ONEWEB-0158             
1 48054U 21025N   21237.58335648  .00046687  00000-0  12716+0 0  9995
2 48054  87.8881 309.3047 0001951  83.7906  66.6929 13.13472116  3301
ONEWEB-0157             
1 48055U 21025P   21237.58335648  .00044319  00000-0  12078+0 0  9997
2 48055  87.8889 309.3532 0002100 113.4383 287.2277 13.13449901  3309
ONEWEB-0162             
1 48056U 21025Q   21237.58335648  .00044460  00000-0  12107+0 0  9998
2 48056  87.8913 309.2789 0002187  87.4175 131.5838 13.13500709  3280
ONEWEB-0155             
1 48057U 21025R   21237.58335648  .00046655  00000-0  12712+0 0  9999
2 48057  87.8865 309.3930 0001937 101.1377   9.5213 13.13446387  3299
ONEWEB-0149             
1 48058U 21025S   21237.58335648  .00043482  00000-0  11846+0 0  9992
2 48058  87.8812 309.3342 0002813 103.5622 276.8624 13.13477025  3290
ONEWEB-0148             
1 48059U 21025T   21237.58335648  .00045610  00000-0  12427+0 0  9994
2 48059  87.8868 309.2998 0002776 115.4059  75.3364 13.13455161  3281
ONEWEB-0160             
1 48060U 21025U   21237.58335648  .00046496  00000-0  12668+0 0  9996
2 48060  87.8843 309.2061 0002421  60.6541  39.9708 13.13451907  3306
ONEWEB-0163             
1 48061U 21025V   21237.58335648  .00045932  00000-0  12515+0 0  9992
2 48061  87.8876 309.3361 0001833 124.2143  56.5251 13.13452457  3284
ONEWEB-0159             
1 48062U 21025W   21237.58335648  .00043132  00000-0  11757+0 0  9990
2 48062  87.8855 309.2913 0002238 114.5278 136.1446 13.13443050  3285
ONEWEB-0164             
1 48063U 21025X   21237.58335648  .00041955  00000-0  11438+0 0  9998
2 48063  87.8853 309.3028 0001328  88.4337 232.3890 13.13441144  3280
ONEWEB-0167             
1 48064U 21025Y   21237.58335648  .00046271  00000-0  12601+0 0  9998
2 48064  87.8918 309.3113 0001795 108.1138  61.9781 13.13484442  3301
ONEWEB-0166             
1 48065U 21025Z   21237.58335648  .00045547  00000-0  12409+0 0  9990
2 48065  87.8887 309.4028 0002334 102.6477 327.7221 13.13460882  3290
ONEWEB-0151             
1 48066U 21025AA  21237.58335648  .00045194  00000-0  12314+0 0  9994
2 48066  87.8890 309.3364 0001252  94.3308 326.3786 13.13457647  3291
ONEWEB-0170             
1 48067U 21025AB  21237.58335648  .00043893  00000-0  11962+0 0  9997
2 48067  87.8918 309.3205 0000792  57.3999 333.3970 13.13452398  3291
ONEWEB-0168             
1 48068U 21025AC  21237.58335648  .00046329  00000-0  12623+0 0  9990
2 48068  87.8899 309.0394 0002057  96.1682 354.5152 13.13449678  3320
ONEWEB-0173             
1 48069U 21025AD  21237.58335648  .00080705  00000-0  21916+0 0  9992
2 48069  87.8876 309.1435 0001393 117.7848  35.1783 13.13430807  3325
ONEWEB-0171             
1 48070U 21025AE  21237.58335648  .00042065  00000-0  11463+0 0  9997
2 48070  87.8843 309.3400 0002678 103.9645 226.3728 13.13468145  3288
ONEWEB-0172             
1 48071U 21025AF  21237.58335648 -.00882856  00000-0 -68724+0 0  9992
2 48071  88.2610 307.3611 0009230  95.2835 204.9659 13.95818085  3471
ONEWEB-0174             
1 48072U 21025AG  21237.58335648  .00046887  00000-0  12772+0 0  9999
2 48072  87.8892 309.0352 0002579 111.3078  29.5749 13.13461962  3321
ONEWEB-0175             
1 48073U 21025AH  21237.58335648  .00043107  00000-0  11749+0 0  9995
2 48073  87.8896 309.4108 0001360  81.1701 289.5224 13.13450403  3293
ONEWEB-0177             
1 48074U 21025AJ  21237.58335648  .00041948  00000-0  11436+0 0  9990
2 48074  87.8825 309.3570 0001585 135.6548 175.1798 13.13440936  3286
ONEWEB-0178             
1 48075U 21025AK  21237.58335648  .00043933  00000-0  11969+0 0  9998
2 48075  87.8838 309.3991 0001890 102.0875 128.6365 13.13473948  3280
ONEWEB-0108             
1 48076U 21025AL  21237.58335648  .00044756  00000-0  12193+0 0  9993
2 48076  87.8883 309.3510 0002918  92.0382 318.7121 13.13468866  3309
ONEWEB-0169             
1 48077U 21025AM  21237.58335648  .00042529  00000-0  11593+0 0  9993
2 48077  87.8870 309.3150 0002722  98.5571 172.1710 13.13444245  3323
ONEWEB-0176             
1 48210U 21031A   21237.58335648  .00000013  00000-0  00000+0 0  9992
2 48210  87.9315 278.8148 0001438 130.3173  67.6251 13.24875657 18815
ONEWEB-0184             
1 48211U 21031B   21237.58335648  .00133621  00000-0  28790+0 0  9991
2 48211  87.9491 278.8600 0001949 125.6240 178.7309 13.28623241 17498
ONEWEB-0179             
1 48212U 21031C   21237.58335648  .00023613  00000-0  51072-1 0  9992
2 48212  87.9457 278.8664 0001264  97.1340 128.9448 13.29157970  3336
ONEWEB-0180             
1 48213U 21031D   21237.58335648  .00000013  00000-0  00000+0 0  9995
2 48213  87.9413 278.8630 0002159 102.5737  11.4378 13.27541392 17445
ONEWEB-0218             
1 48214U 21031E   21237.58335648  .00000013  00000-0  00000+0 0  9996
2 48214  87.9175 278.8711 0001761 117.1217  94.6776 13.21087556 17596
ONEWEB-0209             
1 48215U 21031F   21237.58335648  .00023754  00000-0  51302-1 0  9997
2 48215  87.9486 278.8551 0002335 151.4506 155.1636 13.29252315 17586
ONEWEB-0198             
1 48216U 21031G   21237.58335648  .00024918  00000-0  53306-1 0  9997
2 48216  87.9477 278.8051 0001956 170.9586  40.7886 13.29876555 17678
ONEWEB-0189             
1 48217U 21031H   21237.58335648  .00000013  00000-0  00000+0 0  9999
2 48217  87.9110 278.8732 0001251 147.6312 145.3686 13.19713690 17450
ONEWEB-0196             
1 48218U 21031J   21237.58335648  .00025038  00000-0  60944-1 0  9999
2 48218  87.9225 278.8137 0001160 120.1090   5.9444 13.21251901 17431
ONEWEB-0183             
1 48219U 21031K   21237.58335648  .00130192  00000-0  28144+0 0  9992
2 48219  87.9485 278.8146 0001044 120.8815 355.7497 13.28430052  3356
ONEWEB-0185             
1 48220U 21031L   21237.58335648  .00025004  00000-0  60736-1 0  9994
2 48220  87.9226 278.8655 0001286 142.2350 356.0308 13.21390831  3321
ONEWEB-0187             
1 48221U 21031M   21237.58335648  .00000013  00000-0  00000-0 0  9995
2 48221  87.9385 278.8681 0001461  92.4453 235.5785 13.28162141  3364
ONEWEB-0192             
1 48222U 21031N   21237.58335648  .00023232  00000-0  54478-1 0  9993
2 48222  87.9311 278.8493 0001344 133.5270 161.3096 13.23768271  3316
ONEWEB-0219             
1 48223U 21031P   21237.58335648  .00069862  00000-0  14900+0 0  9997
2 48223  87.9433 278.8491 0001258 103.0812 294.6544 13.29766497  3365
ONEWEB-0202             
1 48224U 21031Q   21237.58335648  .00019358  00000-0  42209-1 0  9998
2 48224  87.9562 278.8715 0002458 186.9189 212.5332 13.28641946  3362
ONEWEB-0204             
1 48225U 21031R   21237.58335648  .00000013  00000-0  00000+0 0  9998
2 48225  87.9102 278.8746 0002797  82.9761 104.1382 13.20094828 17486
ONEWEB-0205             
1 48226U 21031S   21237.58335648  .00025010  00000-0  53822-1 0  9995
2 48226  87.9457 278.8509 0006113 221.8500 278.4604 13.29476434  3335
ONEWEB-0206             
1 48227U 21031T   21237.58335648  .00023358  00000-0  51084-1 0  9997
2 48227  87.9485 278.8558 0002545 120.2360 133.1547 13.28421374  3360
ONEWEB-0182             
1 48228U 21031U   21237.58335648  .00016159  00000-0  35227-1 0  9990
2 48228  87.9616 278.8634 0001090 140.9828 308.8937 13.28673245  3397
ONEWEB-0186             
1 48229U 21031V   21237.58335648  .00057480  00000-0  12406+0 0  9995
2 48229  87.9463 278.8665 0000927  95.1263   1.8395 13.29067240  3384
ONEWEB-0181             
1 48230U 21031W   21237.58335648  .00000013  00000-0  00000-0 0  9995
2 48230  87.9311 278.7895 0000812 171.4484 113.7298 13.25305024  3339
ONEWEB-0188             
1 48231U 21031X   21237.58335648  .00023055  00000-0  56023-1 0  9994
2 48231  87.9228 278.8800 0000902 115.3919 151.6215 13.21377362  3301
ONEWEB-0220             
1 48232U 21031Y   21237.58335648  .00130226  00000-0  28013+0 0  9990
2 48232  87.9464 278.8485 0001136 106.0388 351.8942 13.28756445  3378
ONEWEB-0165             
1 48233U 21031Z   21237.58335648  .00025201  00000-0  54777-1 0  9995
2 48233  87.9463 278.8737 0001624  97.7622 301.5725 13.28819088  3360
ONEWEB-0199             
1 48234U 21031AA  21237.58335648  .00023409  00000-0  51206-1 0  9998
2 48234  87.9479 278.8763 0001414 128.8583 219.5938 13.28408352  3346
ONEWEB-0203             
1 48235U 21031AB  21237.58335648  .00024825  00000-0  53745-1 0  9992
2 48235  87.9451 278.7665 0003010 221.3668 270.7776 13.29084554  3360
ONEWEB-0197             
1 48236U 21031AC  21237.58335648  .00025343  00000-0  55366-1 0  9990
2 48236  87.9481 278.8730 0000769 111.6708 310.2608 13.28483045  3352
ONEWEB-0194             
1 48237U 21031AD  21237.58335648  .00025255  00000-0  54739-1 0  9996
2 48237  87.9468 278.8698 0001416  97.0459 307.8047 13.29006641  3343
ONEWEB-0193             
1 48238U 21031AE  21237.58335648  .00000013  00000-0  00000+0 0  9992
2 48238  87.9314 278.8757 0001740 125.4266 265.6560 13.25310270 17520
ONEWEB-0191             
1 48239U 21031AF  21237.58335648  .00000013  00000-0  00000-0 0  9994
2 48239  87.9219 278.8802 0001989 228.7079  49.0427 13.22238813  3340
ONEWEB-0195             
1 48240U 21031AG  21237.58335648  .00024018  00000-0  58386-1 0  9998
2 48240  87.9216 278.8641 0001264 159.6950 197.8724 13.21344354  3334
